        "eccentricity": '0.00012700',
        "mean_motion_rev_per_day": '14.42054080',
        "altitude_m": '751719.837',
    },
    {
        "name": 'ALOS-2',
        "norad_catalog_id": '39766',
        "tle_line1": '1 39766U 14029A   26103.95555365 -.00000114  00000+0 -83612-5 0  9994',
        "tle_line2": '2 39766  97.9191 202.0398 0001810  89.0297 271.1122 14.79473411642085',
        "epoch_iso": '2026-04-13T22:55:59.835360Z',
        "inclination_deg": '97.919100',
        "eccentricity": '0.00018100',
        "mean_motion_rev_per_day": '14.79473411',
        "altitude_m": '630986.813',
    },
    {
        "name": 'KAZEOSAT 2',
        "norad_catalog_id": '40010',
        "tle_line1": '1 40010U 14033A   26103.89922206 -.00000016  00000+0  39763-5 0  9996',
        "tle_line2": '2 40010  97.5466 306.8919 0008806 161.8543 198.2988 14.85392704639411',
        "epoch_iso": '2026-04-13T21:34:52.785984Z',
        "inclination_deg": '97.546600',
        "eccentricity": '0.00088060',
        "mean_motion_rev_per_day": '14.85392704',
        "altitude_m": '612353.509',
    },
    {
        "name": 'HODOYOSHI-4',
        "norad_catalog_id": '40011',
        "tle_line1": '1 40011U 14033B   26103.95086980  .00001567  00000+0  17562-3 0  9996',
        "tle_line2": '2 40011  97.5465 291.8786 0024238 155.1289 205.1103 14.87974932639256',
        "epoch_iso": '2026-04-13T22:49:15.150720Z',
        "inclination_deg": '97.546500',
        "eccentricity": '0.00242380',
        "mean_motion_rev_per_day": '14.87974932',
        "altitude_m": '604263.648',
    },
    {
        "name": 'DEIMOS-2',
        "norad_catalog_id": '40013',
        "tle_line1": '1 40013U 14033D   26103.93736737  .00001307  00000+0  12918-3 0  9990',
        "tle_line2": '2 40013  97.5922 340.6596 0001765 111.5119 248.6289 14.93547723628139',
        "epoch_iso": '2026-04-13T22:29:48.540768Z',
        "inclination_deg": '97.592200',
        "eccentricity": '0.00017650',
        "mean_motion_rev_per_day": '14.93547723',
        "altitude_m": '586884.135',
    },
    {
        "name": 'HODOYOSHI-3',
        "norad_catalog_id": '40015',
        "tle_line1": '1 40015U 14033F   26103.78193453  .00000893  00000+0  10922-3 0  9999',
        "tle_line2": '2 40015  97.6355 269.4427 0032368 204.4245 155.5439 14.85245089638065',
        "epoch_iso": '2026-04-13T18:45:59.143392Z',
        "inclination_deg": '97.635500',
        "eccentricity": '0.00323680',
        "mean_motion_rev_per_day": '14.85245089',
        "altitude_m": '612816.680',
    },
    {
        "name": 'SPOT 7',
        "norad_catalog_id": '40053',
        "tle_line1": '1 40053U 14034A   26103.93758432  .00000121  00000+0  34006-4 0  9997',
        "tle_line2": '2 40053  98.0684 168.0716 0001643  85.6600 274.4789 14.60901965627756',
        "epoch_iso": '2026-04-13T22:30:07.285248Z',
        "inclination_deg": '98.068400',
        "eccentricity": '0.00016430',
        "mean_motion_rev_per_day": '14.60901965',
        "altitude_m": '690263.124',
    },
    {
        "name": 'SKYSAT-B',
        "norad_catalog_id": '40072',
        "tle_line1": '1 40072U 14037D   26103.43279908  .00000992  00000+0  11517-3 0  9999',
        "tle_line2": '2 40072  98.3782  58.7383 0006724 120.9385 239.2492 14.87857182636336',
        "epoch_iso": '2026-04-13T10:23:13.840512Z',
        "inclination_deg": '98.378200',
        "eccentricity": '0.00067240',
        "mean_motion_rev_per_day": '14.87857182',
        "altitude_m": '604632.037',
    },
    {
        "name": 'WORLDVIEW-3 (WV-3)',
        "norad_catalog_id": '40115',
        "tle_line1": '1 40115U 14048A   26103.88411915  .00000508  00000+0  65901-4 0  9994',
        "tle_line2": '2 40115  97.8586 179.6031 0002384 128.9500 231.1928 14.84915682632369',
        "epoch_iso": '2026-04-13T21:13:07.894560Z',
        "inclination_deg": '97.858600',
        "eccentricity": '0.00023840',
        "mean_motion_rev_per_day": '14.84915682',
        "altitude_m": '613850.536',
    },
    {
        "name": 'GAOFEN-2',
        "norad_catalog_id": '40118',
        "tle_line1": '1 40118U 14049A   26103.98557118 -.00000071  00000+0 -23137-5 0  9998',
        "tle_line2": '2 40118  98.0162 168.2418 0008785  82.4719 277.7491 14.80823040629735',
        "epoch_iso": '2026-04-13T23:39:13.349952Z',
        "inclination_deg": '98.016200',
        "eccentricity": '0.00087850',
        "mean_motion_rev_per_day": '14.80823040',
        "altitude_m": '626727.401',
    },
    {
        "name": 'YAOGAN-21',
        "norad_catalog_id": '40143',
        "tle_line1": '1 40143U 14053A   26103.96207817  .00003275  00000+0  13201-3 0  9993',
        "tle_line2": '2 40143  97.1556 146.9764 0007081 331.4709  28.6142 15.25488014645160',
        "epoch_iso": '2026-04-13T23:05:23.553888Z',
        "inclination_deg": '97.155600',
        "eccentricity": '0.00070810',
        "mean_motion_rev_per_day": '15.25488014',
        "altitude_m": '489320.412',
    },
    {
        "name": 'YAOGAN-22',
        "norad_catalog_id": '40275',
        "tle_line1": '1 40275U 14063A   26103.69437795 -.00000016  00000+0  81741-4 0  9996',
        "tle_line2": '2 40275 100.7618 253.9197 0005985 340.2410  19.8468 13.15528909551336',
        "epoch_iso": '2026-04-13T16:39:54.254880Z',
        "inclination_deg": '100.761800',
        "eccentricity": '0.00059850',
        "mean_motion_rev_per_day": '13.15528909',
        "altitude_m": '1201846.213',
    },
    {
        "name": 'ASNARO',
        "norad_catalog_id": '40298',
        "tle_line1": '1 40298U 14070A   26103.95480753  .00004925  00000+0  23529-3 0  9991',
        "tle_line2": '2 40298  97.3471 181.7906 0003944  52.7297 307.4297 15.19475392634258',
        "epoch_iso": '2026-04-13T22:54:55.370592Z',
        "inclination_deg": '97.347100',
        "eccentricity": '0.00039440',
        "mean_motion_rev_per_day": '15.19475392',
        "altitude_m": '507425.012',
    },
    {
        "name": 'YAOGAN-24',
        "norad_catalog_id": '40310',
        "tle_line1": '1 40310U 14072A   26103.95915104  .00000814  00000+0  12529-3 0  9992',
        "tle_line2": '2 40310  98.1372 240.7915 0015238 107.7523 252.5351 14.76140294614240',
        "epoch_iso": '2026-04-13T23:01:10.649856Z',
        "inclination_deg": '98.137200',
        "eccentricity": '0.00152380',
        "mean_motion_rev_per_day": '14.76140294',
        "altitude_m": '641533.890',
    },
    {
        "name": 'CBERS 4',
        "norad_catalog_id": '40336',
        "tle_line1": '1 40336U 14079A   26103.98144933  .00000088  00000+0  45276-4 0  9993',
        "tle_line2": '2 40336  98.3416 162.8524 0000742 135.8419 224.2827 14.35542369594749',
        "epoch_iso": '2026-04-13T23:33:17.222112Z',
        "inclination_deg": '98.341600',
        "eccentricity": '0.00007420',
        "mean_motion_rev_per_day": '14.35542369',
        "altitude_m": '773264.557',
    },
    {
        "name": 'YAOGAN-26',
        "norad_catalog_id": '40362',
        "tle_line1": '1 40362U 14088A   26103.92779354  .00011802  00000+0  25306-3 0  9994',
        "tle_line2": '2 40362  97.0663 105.7614 0001901 290.3380  69.7665 15.44881139627770',
        "epoch_iso": '2026-04-13T22:16:01.361856Z',
        "inclination_deg": '97.066300',
        "eccentricity": '0.00019010',
        "mean_motion_rev_per_day": '15.44881139',
        "altitude_m": '431727.344',
    },
    {
        "name": 'SMAP',
        "norad_catalog_id": '40376',
        "tle_line1": '1 40376U 15003A   26103.94346338  .00000271  00000+0  61426-4 0  9993',
        "tle_line2": '2 40376  98.1302 111.9412 0001924  87.0545 273.0878 14.63382665598224',
        "epoch_iso": '2026-04-13T22:38:35.236032Z',
        "inclination_deg": '98.130200',
        "eccentricity": '0.00019240',
        "mean_motion_rev_per_day": '14.63382665',
        "altitude_m": '682272.716',
    },
    {
        "name": 'KOMPSAT-3A',
        "norad_catalog_id": '40536',
        "tle_line1": '1 40536U 15014A   26103.91425730  .00020275  00000+0  32606-3 0  9997',
        "tle_line2": '2 40536  97.6891  90.7360 0062126  53.1654 307.5273 15.50789011611840',
        "epoch_iso": '2026-04-13T21:56:31.830720Z',
        "inclination_deg": '97.689100',
        "eccentricity": '0.00621260',
        "mean_motion_rev_per_day": '15.50789011',
        "altitude_m": '414421.145',
    },
    {
        "name": 'SENTINEL-2A',
        "norad_catalog_id": '40697',
        "tle_line1": '1 40697U 15028A   26103.94899738  .00000077  00000+0  46153-4 0  9997',
        "tle_line2": '2 40697  98.5635 179.7237 0001336  89.6508 270.4828 14.30820251564540',
        "epoch_iso": '2026-04-13T22:46:33.373632Z',
        "inclination_deg": '98.563500',
        "eccentricity": '0.00013360',
        "mean_motion_rev_per_day": '14.30820251',
        "altitude_m": '788990.368',
    },
    {
        "name": 'GAOFEN-8',
        "norad_catalog_id": '40701',
        "tle_line1": '1 40701U 15030A   26103.95953976  .00014547  00000+0  32334-3 0  9994',
        "tle_line2": '2 40701  97.6938 293.5810 0010271  69.8010 290.4341 15.43732919601531',
        "epoch_iso": '2026-04-13T23:01:44.235264Z',
        "inclination_deg": '97.693800',
        "eccentricity": '0.00102710',
        "mean_motion_rev_per_day": '15.43732919',
        "altitude_m": '435103.685',
    },
    {
        "name": 'CARBONITE 1 (CBNT-1)',
        "norad_catalog_id": '40718',
        "tle_line1": '1 40718U 15032D   26103.90236962  .00000962  00000+0  12321-3 0  9998',
        "tle_line2": '2 40718  97.6491 284.6762 0015328 141.2305 219.0012 14.83384822579816',
        "epoch_iso": '2026-04-13T21:39:24.735168Z',
        "inclination_deg": '97.649100',
        "eccentricity": '0.00153280',
        "mean_motion_rev_per_day": '14.83384822',
        "altitude_m": '618660.218',
    },
    {
        "name": 'YAOGAN-27',
        "norad_catalog_id": '40878',
        "tle_line1": '1 40878U 15040A   26103.94298638  .00000283  00000+0  85573-3 0  9991',
